{
  "type": "FeatureCollection",
  "name": "synthetic_ahmedabad_wards",
  "crs": {
    "type": "name",
    "properties": {
      "name": "urn:ogc:def:crs:OGC:1.3:CRS84"
    }
  },
  "features": [
    {
      "type": "Feature",
      "properties": {
        "ward_code": "AMD_01",
        "ward_title": "Navrangpura",
        "zone": "West Zone",
        "area_sqkm": 5.4
      },
      "geometry": {
        "type": "Polygon",
        "coordinates": [
          [
            [72.540, 23.030],
            [72.570, 23.030],
            [72.570, 23.055],
            [72.540, 23.055],
            [72.540, 23.030]
          ]
        ]
      }
    },
    {
      "type": "Feature",
      "properties": {
        "ward_code": "AMD_02",
        "ward_title": "Jamalpur",
        "zone": "Central Zone",
        "area_sqkm": 3.2
      },
      "geometry": {
        "type": "Polygon",
        "coordinates": [
          [
            [72.570, 23.010],
            [72.600, 23.010],
            [72.600, 23.030],
            [72.570, 23.030],
            [72.570, 23.010]
          ]
        ]
      }
    },
    {
      "type": "Feature",
      "properties": {
        "ward_code": "AMD_03",
        "ward_title": "Khadia",
        "zone": "Central Zone",
        "area_sqkm": 2.8
      },
      "geometry": {
        "type": "Polygon",
        "coordinates": [
          [
            [72.580, 23.020],
            [72.610, 23.020],
            [72.610, 23.045],
            [72.580, 23.045],
            [72.580, 23.020]
          ]
        ]
      }
    },
    {
      "type": "Feature",
      "properties": {
        "ward_code": "AMD_04",
        "ward_title": "Danilimda",
        "zone": "South Zone",
        "area_sqkm": 6.1
      },
      "geometry": {
        "type": "Polygon",
        "coordinates": [
          [
            [72.570, 22.980],
            [72.610, 22.980],
            [72.610, 23.010],
            [72.570, 23.010],
            [72.570, 22.980]
          ]
        ]
      }
    },
    {
      "type": "Feature",
      "properties": {
        "ward_code": "AMD_05",
        "ward_title": "Bodakdev",
        "zone": "North West Zone",
        "area_sqkm": 7.5
      },
      "geometry": {
        "type": "Polygon",
        "coordinates": [
          [
            [72.500, 23.030],
            [72.540, 23.030],
            [72.540, 23.060],
            [72.500, 23.060],
            [72.500, 23.030]
          ]
        ]
      }
    },
    {
      "type": "Feature",
      "properties": {
        "ward_code": "AMD_06",
        "ward_title": "Sabarmati",
        "zone": "West Zone",
        "area_sqkm": 5.9
      },
      "geometry": {
        "type": "Polygon",
        "coordinates": [
          [
            [72.560, 23.060],
            [72.600, 23.060],
            [72.600, 23.095],
            [72.560, 23.095],
            [72.560, 23.060]
          ]
        ]
      }
    }
  ]
}
